[{"OBJECT_NAME":"LEMUR-2-DEMBITZ","OBJECT_ID":"2017-042T","EPOCH":"2026-03-09T11:23:53.232288","MEAN_MOTION":15.26947128,"ECCENTRICITY":0.00069617,"INCLINATION":97.3807,"RA_OF_ASC_NODE":250.9241,"ARG_OF_PERICENTER":17.1421,"MEAN_ANOMALY":343.0051,"EPHEMERIS_TYPE":0,"CLASSIFICATION_TYPE":"U","NORAD_CAT_ID":42842,"ELEMENT_SET_NO":999,"REV_AT_EPOCH":47311,"BSTAR":0.00076560825,"MEAN_MOTION_DOT":0.00020231,"MEAN_MOTION_DDOT":0},{"OBJECT_NAME":"STARLINK-34066","OBJECT_ID":"2025-095V","EPOCH":"2026-03-09T08:17:16.405728","MEAN_MOTION":15.27642769,"ECCENTRICITY":0.00034442,"INCLINATION":43.0035,"RA_OF_ASC_NODE":178.2952,"ARG_OF_PERICENTER":288.9698,"MEAN_ANOMALY":71.078,"EPHEMERIS_TYPE":0,"CLASSIFICATION_TYPE":"U","NORAD_CAT_ID":63909,"ELEMENT_SET_NO":999,"REV_AT_EPOCH":4772,"BSTAR":0.0016071899,"MEAN_MOTION_DOT":0.0004432,"MEAN_MOTION_DDOT":0}]
